SL-14 R/B               
1 16792U 86046B   25336.07161647  .00000599  00000+0  66374-4 0  9992
2 16792  82.4813 172.3891 0022895 187.1150 172.9744 14.85466342111913
SL-14 R/B               
1 16882U 86055B   25336.15477801  .00000609  00000+0  67677-4 0  9992
2 16882  82.5213 218.3180 0017637 297.4232 215.8264 14.85513659104880
AJISAI (EGS)            
1 16908U 86061A   25336.21407662 -.00000104  00000+0 -49151-4 0  9992
2 16908  50.0113  33.0826 0011259  39.4832 350.6597 12.44514103455863
COSMOS 1812             
1 17295U 87003A   25335.98738959  .00097212  00000+0  71043-3 0  9996
2 17295  82.4863 303.6339 0007026  99.6155 260.5903 15.72881371128968
SL-14 R/B               
1 17567U 87024B   25336.07308108  .00000584  00000+0  63919-4 0  9991
2 17567  82.5281 184.4745 0017230 220.7296 139.2633 14.86006781 73635
COSMOS 1833             
1 17589U 87027A   25336.02831058  .00000036  00000+0  45143-4 0  9999
2 17589  70.9126 171.2949 0022082 346.8042  13.2498 14.13018299996516
SL-16 R/B               
1 17590U 87027B   25335.86175727  .00000081  00000+0  63970-4 0  9994
2 17590  71.0018 122.6392 0007470 271.0721  88.9547 14.17151688  1480
SL-14 R/B               
1 17912U 87038B   25336.15266618  .00000581  00000+0  64683-4 0  9994
2 17912  82.5026  28.6722 0020589 124.6694 235.6466 14.85245282 64753
COSMOS 1844             
1 17973U 87041A   25336.16673905 -.00000158  00000+0 -56919-4 0  9992
2 17973  70.8991 239.8708 0030469 173.8656 186.2845 14.14527791989795
SL-14 R/B               
1 18153U 87055B   25336.01169152  .00000639  00000+0  71015-4 0  9992
2 18153  82.4999  81.0980 0020127 340.4971  19.5473 14.85502424 55438
COSMOS 1867             
1 18187U 87060A   25336.12349951 -.00000020  00000+0  30275-4 0  9992
2 18187  65.0098 219.9321 0013634 270.0749  89.8773 14.31483326  5976
COSMOS 1892             
1 18421U 87088A   25335.95781800  .04125319 -12437-5  53124-3 0  9999
2 18421  82.4559  55.6045 0006820 269.6843  90.3672 16.35834046 89600
