CCSDS_OMM_VERS = 2.0
CREATION_DATE  = 
ORIGINATOR     = 

OBJECT_NAME    = SL-14 R/B
OBJECT_ID      = 1986-046B
CENTER_NAME    = EARTH
REF_FRAME      = TEME
TIME_SYSTEM    = UTC
MEAN_ELEMENT_THEORY = SGP/SGP4

EPOCH          = 2025-12-02T01:43:07.663008
MEAN_MOTION    = 14.85466342
ECCENTRICITY   = .0022895
INCLINATION    = 82.4813
RA_OF_ASC_NODE = 172.3891
ARG_OF_PERICENTER = 187.1150
MEAN_ANOMALY   = 172.9744

EPHEMERIS_TYPE = 0
CLASSIFICATION_TYPE = U
NORAD_CAT_ID   = 16792
ELEMENT_SET_NO = 999
REV_AT_EPOCH   = 11191
BSTAR          = .66374E-4
MEAN_MOTION_DOT = .599E-5
MEAN_MOTION_DDOT = 0

CCSDS_OMM_VERS = 2.0
CREATION_DATE  = 
ORIGINATOR     = 

OBJECT_NAME    = SL-14 R/B
OBJECT_ID      = 1986-055B
CENTER_NAME    = EARTH
REF_FRAME      = TEME
TIME_SYSTEM    = UTC
MEAN_ELEMENT_THEORY = SGP/SGP4

EPOCH          = 2025-12-02T03:42:52.820064
MEAN_MOTION    = 14.85513659
ECCENTRICITY   = .0017637
INCLINATION    = 82.5213
RA_OF_ASC_NODE = 218.3180
ARG_OF_PERICENTER = 297.4232
MEAN_ANOMALY   = 215.8264

EPHEMERIS_TYPE = 0
CLASSIFICATION_TYPE = U
NORAD_CAT_ID   = 16882
ELEMENT_SET_NO = 999
REV_AT_EPOCH   = 10488
BSTAR          = .67677E-4
MEAN_MOTION_DOT = .609E-5
MEAN_MOTION_DDOT = 0

CCSDS_OMM_VERS = 2.0
CREATION_DATE  = 
ORIGINATOR     = 

OBJECT_NAME    = AJISAI (EGS)
OBJECT_ID      = 1986-061A
CENTER_NAME    = EARTH
REF_FRAME      = TEME
TIME_SYSTEM    = UTC
MEAN_ELEMENT_THEORY = SGP/SGP4

EPOCH          = 2025-12-02T05:08:16.219968
MEAN_MOTION    = 12.44514103
ECCENTRICITY   = .0011259
INCLINATION    = 50.0113
RA_OF_ASC_NODE = 33.0826
ARG_OF_PERICENTER = 39.4832
MEAN_ANOMALY   = 350.6597

EPHEMERIS_TYPE = 0
CLASSIFICATION_TYPE = U
NORAD_CAT_ID   = 16908
ELEMENT_SET_NO = 999
REV_AT_EPOCH   = 45586
BSTAR          = -.49151E-4
MEAN_MOTION_DOT = -.104E-5
MEAN_MOTION_DDOT = 0

CCSDS_OMM_VERS = 2.0
CREATION_DATE  = 
ORIGINATOR     = 

OBJECT_NAME    = COSMOS 1812
OBJECT_ID      = 1987-003A
CENTER_NAME    = EARTH
REF_FRAME      = TEME
TIME_SYSTEM    = UTC
MEAN_ELEMENT_THEORY = SGP/SGP4

EPOCH          = 2025-12-01T23:41:50.460576
MEAN_MOTION    = 15.72881371
ECCENTRICITY   = .0007026
INCLINATION    = 82.4863
RA_OF_ASC_NODE = 303.6339
ARG_OF_PERICENTER = 99.6155
MEAN_ANOMALY   = 260.5903

EPHEMERIS_TYPE = 0
CLASSIFICATION_TYPE = U
NORAD_CAT_ID   = 17295
ELEMENT_SET_NO = 999
REV_AT_EPOCH   = 12896
BSTAR          = .71043E-3
MEAN_MOTION_DOT = .97212E-3
MEAN_MOTION_DDOT = 0

CCSDS_OMM_VERS = 2.0
CREATION_DATE  = 
ORIGINATOR     = 

OBJECT_NAME    = SL-14 R/B
OBJECT_ID      = 1987-024B
CENTER_NAME    = EARTH
REF_FRAME      = TEME
TIME_SYSTEM    = UTC
MEAN_ELEMENT_THEORY = SGP/SGP4

EPOCH          = 2025-12-02T01:45:14.205312
MEAN_MOTION    = 14.86006781
ECCENTRICITY   = .001723
INCLINATION    = 82.5281
RA_OF_ASC_NODE = 184.4745
ARG_OF_PERICENTER = 220.7296
MEAN_ANOMALY   = 139.2633

EPHEMERIS_TYPE = 0
CLASSIFICATION_TYPE = U
NORAD_CAT_ID   = 17567
ELEMENT_SET_NO = 999
REV_AT_EPOCH   = 7363
BSTAR          = .63919E-4
MEAN_MOTION_DOT = .584E-5
MEAN_MOTION_DDOT = 0

CCSDS_OMM_VERS = 2.0
CREATION_DATE  = 
ORIGINATOR     = 

OBJECT_NAME    = COSMOS 1833
OBJECT_ID      = 1987-027A
CENTER_NAME    = EARTH
REF_FRAME      = TEME
TIME_SYSTEM    = UTC
MEAN_ELEMENT_THEORY = SGP/SGP4

EPOCH          = 2025-12-02T00:40:46.034112
MEAN_MOTION    = 14.13018299
ECCENTRICITY   = .0022082
INCLINATION    = 70.9126
RA_OF_ASC_NODE = 171.2949
ARG_OF_PERICENTER = 346.8042
MEAN_ANOMALY   = 13.2498

EPHEMERIS_TYPE = 0
CLASSIFICATION_TYPE = U
NORAD_CAT_ID   = 17589
ELEMENT_SET_NO = 999
REV_AT_EPOCH   = 99651
BSTAR          = .45143E-4
MEAN_MOTION_DOT = .36E-6
MEAN_MOTION_DDOT = 0

CCSDS_OMM_VERS = 2.0
CREATION_DATE  = 
ORIGINATOR     = 

OBJECT_NAME    = SL-16 R/B
OBJECT_ID      = 1987-027B
CENTER_NAME    = EARTH
REF_FRAME      = TEME
TIME_SYSTEM    = UTC
MEAN_ELEMENT_THEORY = SGP/SGP4

EPOCH          = 2025-12-01T20:40:55.828128
MEAN_MOTION    = 14.17151688
ECCENTRICITY   = .000747
INCLINATION    = 71.0018
RA_OF_ASC_NODE = 122.6392
ARG_OF_PERICENTER = 271.0721
MEAN_ANOMALY   = 88.9547

EPHEMERIS_TYPE = 0
CLASSIFICATION_TYPE = U
NORAD_CAT_ID   = 17590
ELEMENT_SET_NO = 999
REV_AT_EPOCH   = 148
BSTAR          = .6397E-4
MEAN_MOTION_DOT = .81E-6
MEAN_MOTION_DDOT = 0

CCSDS_OMM_VERS = 2.0
CREATION_DATE  = 
ORIGINATOR     = 

OBJECT_NAME    = SL-14 R/B
OBJECT_ID      = 1987-038B
CENTER_NAME    = EARTH
REF_FRAME      = TEME
TIME_SYSTEM    = UTC
MEAN_ELEMENT_THEORY = SGP/SGP4

EPOCH          = 2025-12-02T03:39:50.357952
MEAN_MOTION    = 14.85245282
ECCENTRICITY   = .0020589
INCLINATION    = 82.5026
RA_OF_ASC_NODE = 28.6722
ARG_OF_PERICENTER = 124.6694
MEAN_ANOMALY   = 235.6466

EPHEMERIS_TYPE = 0
CLASSIFICATION_TYPE = U
NORAD_CAT_ID   = 17912
ELEMENT_SET_NO = 999
REV_AT_EPOCH   = 6475
BSTAR          = .64683E-4
MEAN_MOTION_DOT = .581E-5
MEAN_MOTION_DDOT = 0

CCSDS_OMM_VERS = 2.0
CREATION_DATE  = 
ORIGINATOR     = 

OBJECT_NAME    = COSMOS 1844
OBJECT_ID      = 1987-041A
CENTER_NAME    = EARTH
REF_FRAME      = TEME
TIME_SYSTEM    = UTC
MEAN_ELEMENT_THEORY = SGP/SGP4

EPOCH          = 2025-12-02T04:00:06.253920
MEAN_MOTION    = 14.14527791
ECCENTRICITY   = .0030469
INCLINATION    = 70.8991
RA_OF_ASC_NODE = 239.8708
ARG_OF_PERICENTER = 173.8656
MEAN_ANOMALY   = 186.2845

EPHEMERIS_TYPE = 0
CLASSIFICATION_TYPE = U
NORAD_CAT_ID   = 17973
ELEMENT_SET_NO = 999
REV_AT_EPOCH   = 98979
BSTAR          = -.56919E-4
MEAN_MOTION_DOT = -.158E-5
MEAN_MOTION_DDOT = 0

CCSDS_OMM_VERS = 2.0
CREATION_DATE  = 
ORIGINATOR     = 

OBJECT_NAME    = SL-14 R/B
OBJECT_ID      = 1987-055B
CENTER_NAME    = EARTH
REF_FRAME      = TEME
TIME_SYSTEM    = UTC
MEAN_ELEMENT_THEORY = SGP/SGP4

EPOCH          = 2025-12-02T00:16:50.147328
MEAN_MOTION    = 14.85502424
ECCENTRICITY   = .0020127
INCLINATION    = 82.4999
RA_OF_ASC_NODE = 81.0980
ARG_OF_PERICENTER = 340.4971
MEAN_ANOMALY   = 19.5473

EPHEMERIS_TYPE = 0
CLASSIFICATION_TYPE = U
NORAD_CAT_ID   = 18153
ELEMENT_SET_NO = 999
REV_AT_EPOCH   = 5543
BSTAR          = .71015E-4
MEAN_MOTION_DOT = .639E-5
MEAN_MOTION_DDOT = 0

CCSDS_OMM_VERS = 2.0
CREATION_DATE  = 
ORIGINATOR     = 

OBJECT_NAME    = COSMOS 1867
OBJECT_ID      = 1987-060A
CENTER_NAME    = EARTH
REF_FRAME      = TEME
TIME_SYSTEM    = UTC
MEAN_ELEMENT_THEORY = SGP/SGP4

EPOCH          = 2025-12-02T02:57:50.357664
MEAN_MOTION    = 14.31483326
ECCENTRICITY   = .0013634
INCLINATION    = 65.0098
RA_OF_ASC_NODE = 219.9321
ARG_OF_PERICENTER = 270.0749
MEAN_ANOMALY   = 89.8773

EPHEMERIS_TYPE = 0
CLASSIFICATION_TYPE = U
NORAD_CAT_ID   = 18187
ELEMENT_SET_NO = 999
REV_AT_EPOCH   = 597
BSTAR          = .30275E-4
MEAN_MOTION_DOT = -.2E-6
MEAN_MOTION_DDOT = 0

CCSDS_OMM_VERS = 2.0
CREATION_DATE  = 
ORIGINATOR     = 

OBJECT_NAME    = COSMOS 1892
OBJECT_ID      = 1987-088A
CENTER_NAME    = EARTH
REF_FRAME      = TEME
TIME_SYSTEM    = UTC
MEAN_ELEMENT_THEORY = SGP/SGP4

EPOCH          = 2025-12-01T22:59:15.475200
MEAN_MOTION    = 16.35834046
ECCENTRICITY   = .000682
INCLINATION    = 82.4559
RA_OF_ASC_NODE = 55.6045
ARG_OF_PERICENTER = 269.6843
MEAN_ANOMALY   = 90.3672

EPHEMERIS_TYPE = 0
CLASSIFICATION_TYPE = U
NORAD_CAT_ID   = 18421
ELEMENT_SET_NO = 999
REV_AT_EPOCH   = 8960
BSTAR          = .53124E-3
MEAN_MOTION_DOT = .4125319E-1
MEAN_MOTION_DDOT = -.12437E-5

